0 SL-16 DEB
1 22551U 92093HM  13280.19101659  .00000056  00000-0  72736-4 0  1132
2 22551 070.8655 189.6524 0097504 245.8268 267.7044 13.95711092 56585
0 SL-16 DEB
1 22551U 92093HM  13281.19432936  .00000050  00000-0  68496-4 0  1141
2 22551 070.8653 187.5970 0097424 244.3860 268.8956 13.95711463 56720
0 SL-16 DEB
1 22551U 92093HM  13283.40877437  .00000052  00000-0  69419-4 0  1155
2 22551 070.8651 183.0613 0097410 241.2474 235.4390 13.95712304 57037
0 SL-16 DEB
1 22551U 92093HM  13286.13921653  .00000123  00000-0  11954-3 0  1179
2 22551 070.8651 177.4693 0097262 237.3636 274.6506 13.95712279 57410
0 SL-16 DEB
1 22551U 92093HM  13287.14297875  .00000123  00000-0  11976-3 0  1188
2 22551 070.8651 175.4135 0097233 235.9691 278.0582 13.95712571 57554
0 SL-16 DEB
1 22551U 92093HM  13288.14691705  .00000141  00000-0  13271-3 0  1190
2 22551 070.8646 173.3570 0097192 234.5127 282.4125 13.95713260 57694
0 SL-16 DEB
1 22551U 92093HM  13292.08828625  .00000109  00000-0  10976-3 0  1206
2 22551 070.8636 165.2842 0097026 228.8669 286.0290 13.95714439 58242
0 SL-16 DEB
1 22551U 92093HM  13294.09604655  .00000080  00000-0  89530-4 0  1216
2 22551 070.8635 161.1719 0096934 226.0027 294.1200 13.95715337 58524
